OBJECT B                
1 51825U 22019B   25006.90191087  .00025214  00000+0  81731-3 0  9999
2 51825  97.4063  82.8079 0010819 236.6969 123.3237 15.31925772158306
